{"type":"FeatureCollection","crs":{"type":"name","properties":{"name":"EPSG:3857"}},"features":[{"type":"Feature","id":31,"geometry":{"type":"LineString","coordinates":[[-9393695.23059039,3999567.3794698194],[-9393671.027575346,3999576.1886502574],[-9393684.870567862,3999614.222051875],[-9393709.073582908,3999605.4128422295],[-9393695.23059039,3999567.3794698194]]},"properties":{"DETAIL_ID":"D32","LEVEL_ID":"L1","USE_TYPE":"Wall"}},{"type":"Feature","id":32,"geometry":{"type":"LineString","coordinates":[[-9393693.156046245,3999568.134542163],[-9393673.10211949,3999575.433577384]]},"properties":{"DETAIL_ID":"D33","LEVEL_ID":"L1","USE_TYPE":"Glazing"}},{"type":"Feature","id":33,"geometry":{"type":"LineString","coordinates":[[-9393684.512112297,3999571.2806774634],[-9393681.746053437,3999572.287440944]]},"properties":{"DETAIL_ID":"D34","LEVEL_ID":"L1","USE_TYPE":"Door - Entrance"}},{"type":"Feature","id":34,"geometry":{"type":"LineString","coordinates":[[-9393696.626318028,3999609.9432920627],[-9393692.477229733,3999611.4534424036]]},"properties":{"DETAIL_ID":"D35","LEVEL_ID":"L1","USE_TYPE":"Door - Roll-Up"}},{"type":"Feature","id":35,"geometry":{"type":"LineString","coordinates":[[-9393692.82298709,3999611.327596535],[-9393689.365413511,3999612.5860552914]]},"properties":{"DETAIL_ID":"D36","LEVEL_ID":"L1","USE_TYPE":"Door - Dock"}},{"type":"Feature","id":36,"geometry":{"type":"LineString","coordinates":[[-9393689.365413511,3999612.5860552914],[-9393685.907839935,3999613.844514183]]},"properties":{"DETAIL_ID":"D37","LEVEL_ID":"L1","USE_TYPE":"Door - Dock"}}]}