{"type":"FeatureCollection","crs":{"type":"name","properties":{"name":"EPSG:3857"}},"features":[{"type":"Feature","id":1,"geometry":{"type":"Polygon","coordinates":[[[-9393697.999188896,3999574.986134211],[-9393696.96191682,3999575.363670629],[-9393701.492350733,3999587.8109509246],[-9393702.529622808,3999587.433414101],[-9393697.999188896,3999574.986134211]]]},"properties":{"UNIT_ID":"U2","LEVEL_ID":"L1","USE_TYPE":"Bulk bin wall","NAME":"Bulk bin wall BULK"}},{"type":"Feature","id":2,"geometry":{"type":"Polygon","coordinates":[[[-9393695.859817322,3999569.108256738],[-9393694.822545249,3999569.48579296],[-9393696.332689889,3999573.634882767],[-9393697.36996196,3999573.2573464066],[-9393695.859817322,3999569.108256738]]]},"properties":{"UNIT_ID":"U3","LEVEL_ID":"L1","USE_TYPE":"Wall shelving","NAME":"Wall shelving WALL"}},{"type":"Feature","id":3,"geometry":{"type":"Polygon","coordinates":[[[-9393693.8501006,3999576.4962799507],[-9393692.46707117,3999576.9996619085],[-9393696.997505086,3999589.4469439825],[-9393698.380534515,3999588.9435614776],[-9393693.8501006,3999576.4962799507]]]},"properties":{"UNIT_ID":"U4","LEVEL_ID":"L1","USE_TYPE":"Gondola run","NAME":"Gondola run G1"}},{"type":"Feature","id":4,"geometry":{"type":"Polygon","coordinates":[[[-9393690.392527023,3999577.7547348854],[-9393689.00949759,3999578.2581168986],[-9393693.539931506,3999590.7054003384],[-9393694.922960937,3999590.202017779],[-9393690.392527023,3999577.7547348854]]]},"properties":{"UNIT_ID":"U5","LEVEL_ID":"L1","USE_TYPE":"Gondola run","NAME":"Gondola run G2"}},{"type":"Feature","id":5,"geometry":{"type":"Polygon","coordinates":[[[-9393686.934953444,3999579.013189959],[-9393685.55192401,3999579.516572024],[-9393690.082357926,3999591.963856833],[-9393691.46538736,3999591.460474218],[-9393686.934953444,3999579.013189959]]]},"properties":{"UNIT_ID":"U6","LEVEL_ID":"L1","USE_TYPE":"Gondola run","NAME":"Gondola run G3"}},{"type":"Feature","id":6,"geometry":{"type":"Polygon","coordinates":[[[-9393683.477379866,3999580.2716451697],[-9393682.094350437,3999580.7750272905],[-9393686.62478435,3999593.222313462],[-9393688.00781378,3999592.7189307916],[-9393683.477379866,3999580.2716451697]]]},"properties":{"UNIT_ID":"U7","LEVEL_ID":"L1","USE_TYPE":"Gondola run","NAME":"Gondola run G4"}},{"type":"Feature","id":7,"geometry":{"type":"Polygon","coordinates":[[[-9393693.535487134,3999575.6318859016],[-9393692.152457701,3999576.135267822],[-9393692.46707117,3999576.9996619085],[-9393693.8501006,3999576.4962799507],[-9393693.535487134,3999575.6318859016]]]},"properties":{"UNIT_ID":"U8","LEVEL_ID":"L1","USE_TYPE":"Endcap","NAME":"Endcap G1-EF"}},{"type":"Feature","id":8,"geometry":{"type":"Polygon","coordinates":[[[-9393698.380534515,3999588.9435614776],[-9393696.997505086,3999589.4469439825],[-9393697.312118549,3999590.3113390724],[-9393698.695147984,3999589.8079565302],[-9393698.380534515,3999588.9435614776]]]},"properties":{"UNIT_ID":"U9","LEVEL_ID":"L1","USE_TYPE":"Endcap","NAME":"Endcap G1-EB"}},{"type":"Feature","id":9,"geometry":{"type":"Polygon","coordinates":[[[-9393690.077913554,3999576.8903407417],[-9393688.694884125,3999577.3937227167],[-9393689.00949759,3999578.2581168986],[-9393690.392527023,3999577.7547348854],[-9393690.077913554,3999576.8903407417]]]},"properties":{"UNIT_ID":"U10","LEVEL_ID":"L1","USE_TYPE":"Endcap","NAME":"Endcap G2-EF"}},{"type":"Feature","id":10,"geometry":{"type":"Polygon","coordinates":[[[-9393694.922960937,3999590.202017779],[-9393693.539931506,3999590.7054003384],[-9393693.854544971,3999591.5697955233],[-9393695.237574402,3999591.0664129257],[-9393694.922960937,3999590.202017779]]]},"properties":{"UNIT_ID":"U11","LEVEL_ID":"L1","USE_TYPE":"Endcap","NAME":"Endcap G2-EB"}},{"type":"Feature","id":11,"geometry":{"type":"Polygon","coordinates":[[[-9393686.620339978,3999578.1487957207],[-9393685.237310547,3999578.6521777506],[-9393685.55192401,3999579.516572024],[-9393686.934953444,3999579.013189959],[-9393686.620339978,3999578.1487957207]]]},"properties":{"UNIT_ID":"U12","LEVEL_ID":"L1","USE_TYPE":"Endcap","NAME":"Endcap G3-EF"}},{"type":"Feature","id":12,"geometry":{"type":"Polygon","coordinates":[[[-9393691.46538736,3999591.460474218],[-9393690.082357926,3999591.963856833],[-9393690.396971395,3999592.8282521092],[-9393691.780000826,3999592.3248694595],[-9393691.46538736,3999591.460474218]]]},"properties":{"UNIT_ID":"U13","LEVEL_ID":"L1","USE_TYPE":"Endcap","NAME":"Endcap G3-EB"}},{"type":"Feature","id":13,"geometry":{"type":"Polygon","coordinates":[[[-9393683.162766399,3999579.4072508337],[-9393681.779736968,3999579.9106329195],[-9393682.094350437,3999580.7750272905],[-9393683.477379866,3999580.2716451697],[-9393683.162766399,3999579.4072508337]]]},"properties":{"UNIT_ID":"U14","LEVEL_ID":"L1","USE_TYPE":"Endcap","NAME":"Endcap G4-EF"}},{"type":"Feature","id":14,"geometry":{"type":"Polygon","coordinates":[[[-9393688.00781378,3999592.7189307916],[-9393686.62478435,3999593.222313462],[-9393686.939397816,3999594.0867088363],[-9393688.322427247,3999593.583326131],[-9393688.00781378,3999592.7189307916]]]},"properties":{"UNIT_ID":"U15","LEVEL_ID":"L1","USE_TYPE":"Endcap","NAME":"Endcap G4-EB"}},{"type":"Feature","id":15,"geometry":{"type":"Polygon","coordinates":[[[-9393678.715588951,3999582.7879210943],[-9393677.678316876,3999583.1654577646],[-9393680.698606154,3999591.463648775],[-9393681.735878227,3999591.0861118278],[-9393678.715588951,3999582.7879210943]]]},"properties":{"UNIT_ID":"U16","LEVEL_ID":"L1","USE_TYPE":"Showcase","NAME":"Showcase CASE"}},{"type":"Feature","id":16,"geometry":{"type":"Polygon","coordinates":[[[-9393677.038159503,3999576.350344654],[-9393676.623250674,3999576.5013592383],[-9393678.13339531,3999580.650451581],[-9393678.54830414,3999580.499436941],[-9393677.038159503,3999576.350344654]]]},"properties":{"UNIT_ID":"U17","LEVEL_ID":"L1","USE_TYPE":"Impulse rack","NAME":"Impulse rack IMP"}},{"type":"Feature","id":17,"geometry":{"type":"Polygon","coordinates":[[[-9393686.30445669,3999572.9776861547],[-9393684.92142726,3999573.4810679583],[-9393686.05403574,3999576.592886255],[-9393687.43706517,3999576.089504315],[-9393686.30445669,3999572.9776861547]]]},"properties":{"UNIT_ID":"U18","LEVEL_ID":"L1","USE_TYPE":"Seasonal table","NAME":"Seasonal table SEAS-1"}},{"type":"Feature","id":18,"geometry":{"type":"Polygon","coordinates":[[[-9393682.846883114,3999574.2361407005],[-9393681.463853681,3999574.739522559],[-9393682.59646216,3999577.8513411977],[-9393683.979491593,3999577.3479592055],[-9393682.846883114,3999574.2361407005]]]},"properties":{"UNIT_ID":"U19","LEVEL_ID":"L1","USE_TYPE":"Seasonal table","NAME":"Seasonal table SEAS-2"}},{"type":"Feature","id":19,"geometry":{"type":"Polygon","coordinates":[[[-9393704.606706597,3999595.291783176],[-9393703.223677166,3999595.7951659556],[-9393705.740584895,3999602.710332329],[-9393707.123614328,3999602.206949243],[-9393704.606706597,3999595.291783176]]]},"properties":{"UNIT_ID":"U20","LEVEL_ID":"L1","USE_TYPE":"Pallet rack","NAME":"Pallet rack RACK-1"}},{"type":"Feature","id":20,"geometry":{"type":"Polygon","coordinates":[[[-9393700.457618302,3999596.8019315884],[-9393699.074588872,3999597.3053144375],[-9393701.591496602,3999604.220481717],[-9393702.974526033,3999603.7170985644],[-9393700.457618302,3999596.8019315884]]]},"properties":{"UNIT_ID":"U21","LEVEL_ID":"L1","USE_TYPE":"Pallet rack","NAME":"Pallet rack RACK-2"}},{"type":"Feature","id":21,"geometry":{"type":"Polygon","coordinates":[[[-9393695.271257935,3999598.689617385],[-9393694.579743221,3999598.941308846],[-9393696.84496018,3999605.164960098],[-9393697.536474893,3999604.9132685],[-9393695.271257935,3999598.689617385]]]},"properties":{"UNIT_ID":"U22","LEVEL_ID":"L1","USE_TYPE":"Back stock shelving","NAME":"Back stock shelving SHELF-1"}},{"type":"Feature","id":22,"geometry":{"type":"Polygon","coordinates":[[[-9393692.505199073,3999599.696383267],[-9393691.813684357,3999599.948074755],[-9393694.078901315,3999606.1717265523],[-9393694.770416033,3999605.920034932],[-9393692.505199073,3999599.696383267]]]},"properties":{"UNIT_ID":"U23","LEVEL_ID":"L1","USE_TYPE":"Back stock shelving","NAME":"Back stock shelving SHELF-2"}},{"type":"Feature","id":23,"geometry":{"type":"Polygon","coordinates":[[[-9393676.57621738,3999576.9100396195],[-9393675.538945306,3999577.2875761003],[-9393675.79063608,3999577.9790914343],[-9393676.827908155,3999577.6015549307],[-9393676.57621738,3999576.9100396195]]]},"properties":{"UNIT_ID":"U24","LEVEL_ID":"L1","USE_TYPE":"Checkout register","NAME":"REG-1"}},{"type":"Feature","id":24,"geometry":{"type":"Polygon","coordinates":[[[-9393677.457135087,3999579.33034339],[-9393676.419863012,3999579.7078799508],[-9393676.671553785,3999580.3993954305],[-9393677.70882586,3999580.021858847],[-9393677.457135087,3999579.33034339]]]},"properties":{"UNIT_ID":"U25","LEVEL_ID":"L1","USE_TYPE":"Checkout register","NAME":"REG-2"}},{"type":"Feature","id":25,"geometry":{"type":"Polygon","coordinates":[[[-9393677.961786453,3999585.0200926447],[-9393676.924514377,3999585.3976293895],[-9393677.176205155,3999586.0891452124],[-9393678.213477224,3999585.7116084453],[-9393677.961786453,3999585.0200926447]]]},"properties":{"UNIT_ID":"U26","LEVEL_ID":"L1","USE_TYPE":"Service station","NAME":"CTR-1"}},{"type":"Feature","id":26,"geometry":{"type":"Polygon","coordinates":[[[-9393679.47193109,3999589.1691880696],[-9393678.434659015,3999589.546724954],[-9393678.68634979,3999590.2382410266],[-9393679.723621864,3999589.8607041193],[-9393679.47193109,3999589.1691880696]]]},"properties":{"UNIT_ID":"U27","LEVEL_ID":"L1","USE_TYPE":"Service station","NAME":"CTR-2"}},{"type":"Feature","id":27,"geometry":{"type":"Polygon","coordinates":[[[-9393682.113414386,3999592.1233860916],[-9393681.076142313,3999592.5009230734],[-9393681.327833086,3999593.192439324],[-9393682.36510516,3999592.814902323],[-9393682.113414386,3999592.1233860916]]]},"properties":{"UNIT_ID":"U28","LEVEL_ID":"L1","USE_TYPE":"Gift wrap station","NAME":"WRAP-1"}},{"type":"Feature","id":28,"geometry":{"type":"Polygon","coordinates":[[[-9393704.543148993,3999592.965542833],[-9393680.340133946,3999601.774742921],[-9393684.870567862,3999614.222051875],[-9393709.073582908,3999605.4128422295],[-9393704.543148993,3999592.965542833]]]},"properties":{"UNIT_ID":"U29","LEVEL_ID":"L1","USE_TYPE":"Stockroom","NAME":"Back of house"}},{"type":"Feature","id":29,"geometry":{"type":"Polygon","coordinates":[[[-9393687.949335458,3999607.619588396],[-9393683.108732449,3999609.3814301216],[-9393684.870567862,3999614.222051875],[-9393689.711170869,3999612.460209407],[-9393687.949335458,3999607.619588396]]]},"properties":{"UNIT_ID":"U30","LEVEL_ID":"L1","USE_TYPE":"Office","NAME":"Manager office"}},{"type":"Feature","id":30,"geometry":{"type":"Polygon","coordinates":[[[-9393686.16972256,3999542.4849670697],[-9393661.966707515,3999551.2941283905],[-9393670.77588457,3999575.497135032],[-9393694.978899619,3999566.6879551243],[-9393686.16972256,3999542.4849670697]]]},"properties":{"UNIT_ID":"U31","LEVEL_ID":"L1","USE_TYPE":"Parking","NAME":"Customer parking"}},{"type":"Feature","id":31,"geometry":{"type":"LineString","coordinates":[[-9393695.23059039,3999567.3794698194],[-9393671.027575346,3999576.1886502574],[-9393684.870567862,3999614.222051875],[-9393709.073582908,3999605.4128422295],[-9393695.23059039,3999567.3794698194]]},"properties":{"DETAIL_ID":"D32","LEVEL_ID":"L1","USE_TYPE":"Wall"}},{"type":"Feature","id":32,"geometry":{"type":"LineString","coordinates":[[-9393693.156046245,3999568.134542163],[-9393673.10211949,3999575.433577384]]},"properties":{"DETAIL_ID":"D33","LEVEL_ID":"L1","USE_TYPE":"Glazing"}},{"type":"Feature","id":33,"geometry":{"type":"LineString","coordinates":[[-9393684.512112297,3999571.2806774634],[-9393681.746053437,3999572.287440944]]},"properties":{"DETAIL_ID":"D34","LEVEL_ID":"L1","USE_TYPE":"Door - Entrance"}},{"type":"Feature","id":34,"geometry":{"type":"LineString","coordinates":[[-9393696.626318028,3999609.9432920627],[-9393692.477229733,3999611.4534424036]]},"properties":{"DETAIL_ID":"D35","LEVEL_ID":"L1","USE_TYPE":"Door - Roll-Up"}},{"type":"Feature","id":35,"geometry":{"type":"LineString","coordinates":[[-9393692.82298709,3999611.327596535],[-9393689.365413511,3999612.5860552914]]},"properties":{"DETAIL_ID":"D36","LEVEL_ID":"L1","USE_TYPE":"Door - Dock"}},{"type":"Feature","id":36,"geometry":{"type":"LineString","coordinates":[[-9393689.365413511,3999612.5860552914],[-9393685.907839935,3999613.844514183]]},"properties":{"DETAIL_ID":"D37","LEVEL_ID":"L1","USE_TYPE":"Door - Dock"}},{"type":"Feature","id":37,"geometry":{"type":"Polygon","coordinates":[[[-9393695.23059039,3999567.3794698194],[-9393671.027575346,3999576.1886502574],[-9393684.870567862,3999614.222051875],[-9393709.073582908,3999605.4128422295],[-9393695.23059039,3999567.3794698194]]]},"properties":{"LEVEL_ID":"L1","FACILITY_ID":"F1","NAME":"Ground","LEVEL_NUMBER":1,"VERTICAL_ORDER":0}}]}